{"type": "FeatureCollection", "features": [ {"type": "Feature", "properties": {"norad_id": 31512, "name": "FENGYUN 1C DEB", "group": "fengyun-1c-debris", "lat": -68.33162151219322, "lon": 47.956079082319455, "alt_km": 816.186543537031, "timestamp": "2025-12-21T05:44:51.868620+00:00", "meta": {"OBJECT_NAME": "FENGYUN 1C DEB", "OBJECT_ID": "1999-025BXB", "EPOCH": "2025-12-18T13:56:27.156768", "MEAN_MOTION": 14.43835972, "ECCENTRICITY": 0.01445609, "INCLINATION": 98.8044, "RA_OF_ASC_NODE": 248.1662, "ARG_OF_PERICENTER": 129.5728, "MEAN_ANOMALY": 348.1165, "EPHEMERIS_TYPE": 0, "CLASSIFICATION_TYPE": "U", "NORAD_CAT_ID": 31512, "ELEMENT_SET_NO": 999, "REV_AT_EPOCH": 65586, "BSTAR": 0.00030439423, "MEAN_MOTION_DOT": 1.125e-05, "MEAN_MOTION_DDOT": 0}, "tle": {"line1": "1 31512U 99025BXB 25352.58086987  .00001125  00000+0  30439-3 0  9995", "line2": "2 31512  98.8044 248.1662 0144560 129.5728 348.1165 14.43835972655864"}}, "geometry": {"type": "Point", "coordinates": [47.956079082319455, -68.33162151219322]}}, {"type": "Feature", "properties": {"norad_id": 31513, "name": "FENGYUN 1C DEB", "group": "fengyun-1c-debris", "lat": 63.94610949416905, "lon": -69.23970465012017, "alt_km": 757.0546877809948, "timestamp": "2025-12-21T05:44:51.868630+00:00", "meta": {"OBJECT_NAME": "FENGYUN 1C DEB", "OBJECT_ID": "1999-025BXC", "EPOCH": "2025-11-25T02:15:23.832576", "MEAN_MOTION": 14.32315683, "ECCENTRICITY": 0.00282412, "INCLINATION": 98.8622, "RA_OF_ASC_NODE": 65.435, "ARG_OF_PERICENTER": 176.3464, "MEAN_ANOMALY": 183.7931, "EPHEMERIS_TYPE": 0, "CLASSIFICATION_TYPE": "U", "NORAD_CAT_ID": 31513, "ELEMENT_SET_NO": 999, "REV_AT_EPOCH": 72616, "BSTAR": 0.0023967664, "MEAN_MOTION_DOT": 6.459e-05, "MEAN_MOTION_DDOT": 0}, "tle": {"line1": "1 31513U 99025BXC 25329.09402584  .00006459  00000+0  23968-2 0  9994", "line2": "2 31513  98.8622  65.4350 0028241 176.3464 183.7931 14.32315683726161"}}, "geometry": {"type": "Point", "coordinates": [-69.23970465012017, 63.94610949416905]}}, {"type": "Feature", "properties": {"norad_id": 31514, "name": "FENGYUN 1C DEB", "group": "fengyun-1c-debris", "lat": 35.11581870912366, "lon": -110.20331238080408, "alt_km": 797.1263812984398, "timestamp": "2025-12-21T05:44:51.868640+00:00", "meta": {"OBJECT_NAME": "FENGYUN 1C DEB", "OBJECT_ID": "1999-025BXD", "EPOCH": "2025-12-19T16:24:15.540480", "MEAN_MOTION": 14.21027591, "ECCENTRICITY": 0.00535231, "INCLINATION": 99.2475, "RA_OF_ASC_NODE": 254.7477, "ARG_OF_PERICENTER": 95.0297, "MEAN_ANOMALY": 265.6991, "EPHEMERIS_TYPE": 0, "CLASSIFICATION_TYPE": "U", "NORAD_CAT_ID": 31514, "ELEMENT_SET_NO": 999, "REV_AT_EPOCH": 69423, "BSTAR": 0.0011245302, "MEAN_MOTION_DOT": 2.427e-05, "MEAN_MOTION_DDOT": 0}, "tle": {"line1": "1 31514U 99025BXD 25353.68351320  .00002427  00000+0  11245-2 0  9994", "line2": "2 31514  99.2475 254.7477 0053523  95.0297 265.6991 14.21027591694232"}}, "geometry": {"type": "Point", "coordinates": [-110.20331238080408, 35.11581870912366]}}, {"type": "Feature", "properties": {"norad_id": 31516, "name": "FENGYUN 1C DEB", "group": "fengyun-1c-debris", "lat": 41.09221273976578, "lon": -61.00347934264874, "alt_km": 775.7628672863993, "timestamp": "2025-12-21T05:44:51.868650+00:00", "meta": {"OBJECT_NAME": "FENGYUN 1C DEB", "OBJECT_ID": "1999-025BXF", "EPOCH": "2025-12-20T19:41:50.359200", "MEAN_MOTION": 14.25428132, "ECCENTRICITY": 0.01487077, "INCLINATION": 98.8325, "RA_OF_ASC_NODE": 110.7812, "ARG_OF_PERICENTER": 215.0876, "MEAN_ANOMALY": 297.0709, "EPHEMERIS_TYPE": 0, "CLASSIFICATION_TYPE": "U", "NORAD_CAT_ID": 31516, "ELEMENT_SET_NO": 999, "REV_AT_EPOCH": 96607, "BSTAR": 0.00032724453, "MEAN_MOTION_DOT": 8.2e-06, "MEAN_MOTION_DDOT": 0}, "tle": {"line1": "1 31516U 99025BXF 25354.82072175  .00000820  00000+0  32724-3 0  9992", "line2": "2 31516  98.8325 110.7812 0148707 215.0876 297.0709 14.25428132966073"}}, "geometry": {"type": "Point", "coordinates": [-61.00347934264874, 41.09221273976578]}}, {"type": "Feature", "properties": {"norad_id": 31519, "name": "FENGYUN 1C DEB", "group": "fengyun-1c-debris", "lat": -17.326964388003823, "lon": 168.8763065383859, "alt_km": 783.6039077685755, "timestamp": "2025-12-21T05:44:51.868660+00:00", "meta": {"OBJECT_NAME": "FENGYUN 1C DEB", "OBJECT_ID": "1999-025BXJ", "EPOCH": "2025-12-19T19:04:45.982560", "MEAN_MOTION": 14.23412147, "ECCENTRICITY": 0.00519537, "INCLINATION": 98.5733, "RA_OF_ASC_NODE": 350.1666, "ARG_OF_PERICENTER": 221.7648, "MEAN_ANOMALY": 137.9561, "EPHEMERIS_TYPE": 0, "CLASSIFICATION_TYPE": "U", "NORAD_CAT_ID": 31519, "ELEMENT_SET_NO": 999, "REV_AT_EPOCH": 64865, "BSTAR": 0.00031493652, "MEAN_MOTION_DOT": 6.82e-06, "MEAN_MOTION_DDOT": 0}, "tle": {"line1": "1 31519U 99025BXJ 25353.79497665  .00000682  00000+0  31494-3 0  9994", "line2": "2 31519  98.5733 350.1666 0051953 221.7648 137.9561 14.23412147648656"}}, "geometry": {"type": "Point", "coordinates": [168.8763065383859, -17.326964388003823]}}, {"type": "Feature", "properties": {"norad_id": 31522, "name": "FENGYUN 1C DEB", "group": "fengyun-1c-debris", "lat": 39.23736877733341, "lon": 5.904347035290556, "alt_km": 899.6801774680252, "timestamp": "2025-12-21T05:44:51.868671+00:00", "meta": {"OBJECT_NAME": "FENGYUN 1C DEB", "OBJECT_ID": "1999-025BXM", "EPOCH": "2025-12-20T00:28:53.364576", "MEAN_MOTION": 14.04009093, "ECCENTRICITY": 0.00433989, "INCLINATION": 98.7066, "RA_OF_ASC_NODE": 11.925, "ARG_OF_PERICENTER": 179.793, "MEAN_ANOMALY": 180.3263, "EPHEMERIS_TYPE": 0, "CLASSIFICATION_TYPE": "U", "NORAD_CAT_ID": 31522, "ELEMENT_SET_NO": 999, "REV_AT_EPOCH": 95098, "BSTAR": 0.00025429721, "MEAN_MOTION_DOT": 3.64e-06, "MEAN_MOTION_DDOT": 0}, "tle": {"line1": "1 31522U 99025BXM 25354.02006209  .00000364  00000+0  25430-3 0  9995", "line2": "2 31522  98.7066  11.9250 0043398 179.7930 180.3263 14.04009093950986"}}, "geometry": {"type": "Point", "coordinates": [5.904347035290556, 39.23736877733341]}}, {"type": "Feature", "properties": {"norad_id": 31523, "name": "FENGYUN 1C DEB", "group": "fengyun-1c-debris", "lat": -6.662186181170499, "lon": -138.42154684043126, "alt_km": 854.938751365843, "timestamp": "2025-12-21T05:44:51.868680+00:00", "meta": {"OBJECT_NAME": "FENGYUN 1C DEB", "OBJECT_ID": "1999-025BXN", "EPOCH": "2025-12-18T09:00:27.931392", "MEAN_MOTION": 14.13860711, "ECCENTRICITY": 0.00394646, "INCLINATION": 98.7566, "RA_OF_ASC_NODE": 39.8049, "ARG_OF_PERICENTER": 94.418, "MEAN_ANOMALY": 281.6008, "EPHEMERIS_TYPE": 0, "CLASSIFICATION_TYPE": "U", "NORAD_CAT_ID": 31523, "ELEMENT_SET_NO": 999, "REV_AT_EPOCH": 96087, "BSTAR": 2.5829225e-05, "MEAN_MOTION_DOT": 6e-08, "MEAN_MOTION_DDOT": 0}, "tle": {"line1": "1 31523U 99025BXN 25352.37532328  .00000006  00000+0  25829-4 0  9994", "line2": "2 31523  98.7566  39.8049 0039464  94.4180 281.6008 14.13860711960879"}}, "geometry": {"type": "Point", "coordinates": [-138.42154684043126, -6.662186181170499]}}, {"type": "Feature", "properties": {"norad_id": 31527, "name": "FENGYUN 1C DEB", "group": "fengyun-1c-debris", "lat": 19.335128872818103, "lon": 156.4368540959203, "alt_km": 1215.941244436638, "timestamp": "2025-12-21T05:44:51.868691+00:00", "meta": {"OBJECT_NAME": "FENGYUN 1C DEB", "OBJECT_ID": "1999-025BXS", "EPOCH": "2025-12-13T21:39:09.060480", "MEAN_MOTION": 13.23403725, "ECCENTRICITY": 0.04500793, "INCLINATION": 98.8924, "RA_OF_ASC_NODE": 153.3063, "ARG_OF_PERICENTER": 297.5489, "MEAN_ANOMALY": 58.059, "EPHEMERIS_TYPE": 0, "CLASSIFICATION_TYPE": "U", "NORAD_CAT_ID": 31527, "ELEMENT_SET_NO": 999, "REV_AT_EPOCH": 90205, "BSTAR": 0.00080308436, "MEAN_MOTION_DOT": 5.44e-06, "MEAN_MOTION_DDOT": 0}, "tle": {"line1": "1 31527U 99025BXS 25347.90218820  .00000544  00000+0  80308-3 0  9998", "line2": "2 31527  98.8924 153.3063 0450079 297.5489  58.0590 13.23403725902053"}}, "geometry": {"type": "Point", "coordinates": [156.4368540959203, 19.335128872818103]}}, {"type": "Feature", "properties": {"norad_id": 31531, "name": "FENGYUN 1C DEB", "group": "fengyun-1c-debris", "lat": 68.0044178130065, "lon": -118.80462936664034, "alt_km": 882.3889086371355, "timestamp": "2025-12-21T05:44:51.868701+00:00", "meta": {"OBJECT_NAME": "FENGYUN 1C DEB", "OBJECT_ID": "1999-025BXW", "EPOCH": "2025-12-15T20:25:10.111008", "MEAN_MOTION": 14.35669626, "ECCENTRICITY": 0.02439564, "INCLINATION": 98.3829, "RA_OF_ASC_NODE": 34.5409, "ARG_OF_PERICENTER": 259.2903, "MEAN_ANOMALY": 98.0732, "EPHEMERIS_TYPE": 0, "CLASSIFICATION_TYPE": "U", "NORAD_CAT_ID": 31531, "ELEMENT_SET_NO": 999, "REV_AT_EPOCH": 63979, "BSTAR": 0.00065093757, "MEAN_MOTION_DOT": 2.583e-05, "MEAN_MOTION_DDOT": 0}, "tle": {"line1": "1 31531U 99025BXW 25349.85081147  .00002583  00000+0  65094-3 0  9999", "line2": "2 31531  98.3829  34.5409 0243956 259.2903  98.0732 14.35669626639799"}}, "geometry": {"type": "Point", "coordinates": [-118.80462936664034, 68.0044178130065]}}, {"type": "Feature", "properties": {"norad_id": 31533, "name": "FENGYUN 1C DEB", "group": "fengyun-1c-debris", "lat": 33.043431652902726, "lon": -118.28630470886351, "alt_km": 780.2102049355935, "timestamp": "2025-12-21T05:44:51.868711+00:00", "meta": {"OBJECT_NAME": "FENGYUN 1C DEB", "OBJECT_ID": "1999-025BXY", "EPOCH": "2025-12-20T22:51:51.968448", "MEAN_MOTION": 14.27642975, "ECCENTRICITY": 0.00652084, "INCLINATION": 98.9606, "RA_OF_ASC_NODE": 247.3106, "ARG_OF_PERICENTER": 325.816, "MEAN_ANOMALY": 33.8829, "EPHEMERIS_TYPE": 0, "CLASSIFICATION_TYPE": "U", "NORAD_CAT_ID": 31533, "ELEMENT_SET_NO": 999, "REV_AT_EPOCH": 66240, "BSTAR": 0.00028805373, "MEAN_MOTION_DOT": 6.79e-06, "MEAN_MOTION_DDOT": 0}, "tle": {"line1": "1 31533U 99025BXY 25354.95268482  .00000679  00000+0  28805-3 0  9990", "line2": "2 31533  98.9606 247.3106 0065208 325.8160  33.8829 14.27642975662402"}}, "geometry": {"type": "Point", "coordinates": [-118.28630470886351, 33.043431652902726]}}]}